{
  "amenity/cinema|109シネマズ": {
    "locationSet": {"include": ["jp"]},
    "tags": {
      "amenity": "cinema",
      "brand": "109シネマズ",
      "brand:en": "109 Cinemas",
      "brand:ja": "109シネマズ",
      "brand:wikidata": "Q10854269",
      "brand:wikipedia": "ja:109シネマズ",
      "name": "109シネマズ",
      "name:en": "109 Cinemas",
      "name:ja": "109シネマズ"
    }
  },
  "amenity/cinema|AMC": {
    "locationSet": {"include": ["us"]},
    "matchNames": [
      "amc cinema",
      "amc cinemas",
      "amc theater",
      "amc theaters",
      "amc theatre",
      "amc theatres"
    ],
    "tags": {
      "amenity": "cinema",
      "brand": "AMC",
      "brand:wikidata": "Q294721",
      "brand:wikipedia": "en:AMC Theatres",
      "name": "AMC"
    }
  },
  "amenity/cinema|B&B Theatres": {
    "locationSet": {"include": ["us"]},
    "matchNames": ["b&b theaters"],
    "tags": {
      "amenity": "cinema",
      "brand": "B&B Theatres",
      "brand:wikidata": "Q4833576",
      "brand:wikipedia": "en:B&B Theatres",
      "name": "B&B Theatres",
      "short_name": "B&B"
    }
  },
  "amenity/cinema|CGR": {
    "locationSet": {"include": ["fr"]},
    "tags": {
      "amenity": "cinema",
      "brand": "CGR",
      "brand:wikidata": "Q2931406",
      "brand:wikipedia": "fr:Circuit Georges-Raymond",
      "name": "CGR Cinémas"
    }
  },
  "amenity/cinema|Caribbean Cinemas": {
    "locationSet": {
      "include": [
        "ag",
        "do",
        "fr",
        "gy",
        "kn",
        "lc",
        "nl",
        "pa",
        "tt",
        "us"
      ]
    },
    "tags": {
      "amenity": "cinema",
      "brand": "Caribbean Cinemas",
      "brand:wikidata": "Q5039364",
      "brand:wikipedia": "en:Caribbean Cinemas",
      "name": "Caribbean Cinemas"
    }
  },
  "amenity/cinema|Century Theatres": {
    "locationSet": {"include": ["us"]},
    "matchNames": [
      "century theater",
      "century theaters",
      "century theatre"
    ],
    "tags": {
      "amenity": "cinema",
      "brand": "Century Theatres",
      "brand:wikidata": "Q2946307",
      "brand:wikipedia": "en:Century Theatres",
      "name": "Century Theatres",
      "short_name": "Century"
    }
  },
  "amenity/cinema|Cine Center": {
    "locationSet": {"include": ["bo"]},
    "tags": {
      "amenity": "cinema",
      "brand": "Cine Center",
      "brand:wikidata": "Q81962395",
      "name": "Cine Center"
    }
  },
  "amenity/cinema|CineStar": {
    "locationSet": {"include": ["de"]},
    "tags": {
      "amenity": "cinema",
      "brand": "CineStar",
      "brand:wikidata": "Q321889",
      "brand:wikipedia": "de:Cinestar",
      "name": "CineStar"
    }
  },
  "amenity/cinema|Cinema City": {
    "locationSet": {
      "include": ["cz", "hu", "pl", "ro"]
    },
    "tags": {
      "amenity": "cinema",
      "brand": "Cinema City",
      "brand:wikidata": "Q543651",
      "brand:wikipedia": "en:Cinema City International",
      "name": "Cinema City"
    }
  },
  "amenity/cinema|Cinema NOS": {
    "locationSet": {"include": ["pt"]},
    "tags": {
      "amenity": "cinema",
      "brand": "Cinemas NOS",
      "brand:wikidata": "Q8063259",
      "brand:wikipedia": "en:NOS Audiovisuais",
      "name": "Cinema NOS"
    }
  },
  "amenity/cinema|Cinemark": {
    "locationSet": {"include": ["001"]},
    "tags": {
      "amenity": "cinema",
      "brand": "Cinemark",
      "brand:wikidata": "Q707530",
      "brand:wikipedia": "en:Cinemark Theatres",
      "name": "Cinemark"
    }
  },
  "amenity/cinema|Cinemax": {
    "locationSet": {"include": ["sk"]},
    "tags": {
      "amenity": "cinema",
      "brand": "Cinemax",
      "brand:wikidata": "Q93129643",
      "name": "Cinemax"
    }
  },
  "amenity/cinema|Cinemaxx~(Europe)": {
    "locationSet": {"include": ["de", "dk"]},
    "nomatch": [
      "amenity/cinema|Cinemaxx~(Indonesia)"
    ],
    "tags": {
      "amenity": "cinema",
      "brand": "Cinemaxx",
      "brand:wikidata": "Q881860",
      "brand:wikipedia": "de:Cinemaxx",
      "name": "Cinemaxx"
    }
  },
  "amenity/cinema|Cinemaxx~(Indonesia)": {
    "locationSet": {"include": ["id"]},
    "nomatch": [
      "amenity/cinema|Cinemaxx~(Europe)"
    ],
    "tags": {
      "amenity": "cinema",
      "brand": "Cinemaxx",
      "brand:wikidata": "Q19942740",
      "brand:wikipedia": "id:Cinemaxx",
      "name": "Cinemaxx"
    }
  },
  "amenity/cinema|Cinemex": {
    "locationSet": {"include": ["mx"]},
    "tags": {
      "amenity": "cinema",
      "brand": "Cinemex",
      "brand:wikidata": "Q3333072",
      "brand:wikipedia": "en:Cinemex",
      "name": "Cinemex"
    }
  },
  "amenity/cinema|Cineplanet": {
    "locationSet": {"include": ["cl", "pe"]},
    "tags": {
      "amenity": "cinema",
      "brand": "Cineplanet",
      "brand:wikidata": "Q5769680",
      "brand:wikipedia": "es:Cineplanet",
      "name": "Cineplanet"
    }
  },
  "amenity/cinema|Cineplex": {
    "locationSet": {"include": ["ca"]},
    "matchNames": [
      "cineplex cinema",
      "cineplex cinemas",
      "cineplex entertainment",
      "cineplex odeon",
      "cineplex theatre",
      "cineplex theatres"
    ],
    "tags": {
      "amenity": "cinema",
      "brand": "Cineplex",
      "brand:wikidata": "Q2972807",
      "brand:wikipedia": "en:Cineplex Entertainment",
      "name": "Cineplex"
    }
  },
  "amenity/cinema|Cineplexx": {
    "locationSet": {"include": ["at", "si"]},
    "tags": {
      "amenity": "cinema",
      "brand": "Cineplexx",
      "brand:wikidata": "Q873340",
      "brand:wikipedia": "en:Cineplexx Cinemas",
      "name": "Cineplexx"
    }
  },
  "amenity/cinema|Cinepolis": {
    "locationSet": {"include": ["001"]},
    "tags": {
      "amenity": "cinema",
      "brand": "Cinepolis",
      "brand:wikidata": "Q5686673",
      "brand:wikipedia": "en:Cinépolis",
      "name": "Cinepolis"
    }
  },
  "amenity/cinema|Cineworld": {
    "locationSet": {"include": ["gb"]},
    "tags": {
      "amenity": "cinema",
      "brand": "Cineworld",
      "brand:wikidata": "Q5120901",
      "brand:wikipedia": "en:Cineworld",
      "name": "Cineworld"
    }
  },
  "amenity/cinema|Cinéville": {
    "locationSet": {"include": ["fr"]},
    "tags": {
      "amenity": "cinema",
      "brand": "Cinéville",
      "brand:wikidata": "Q2973271",
      "brand:wikipedia": "fr:Cinéville",
      "name": "Cinéville"
    }
  },
  "amenity/cinema|Megarama": {
    "locationSet": {"include": ["fr"]},
    "tags": {
      "amenity": "cinema",
      "brand": "Megarama",
      "brand:wikidata": "Q96707027",
      "name": "Megarama Cinemas"
    }
  },
  "amenity/cinema|Event": {
    "locationSet": {"include": ["au", "nz"]},
    "matchNames": ["event cinema"],
    "tags": {
      "amenity": "cinema",
      "brand": "Event",
      "brand:wikidata": "Q5416698",
      "brand:wikipedia": "en:Event Cinemas",
      "name": "Event",
      "official_name": "Event Cinemas"
    }
  },
  "amenity/cinema|Golden Screen Cinemas": {
    "locationSet": {"include": ["my"]},
    "tags": {
      "amenity": "cinema",
      "brand": "Golden Screen Cinemas",
      "brand:wikidata": "Q5579784",
      "brand:wikipedia": "en:Golden Screen Cinemas",
      "name": "Golden Screen Cinemas",
      "short_name": "GSC"
    }
  },
  "amenity/cinema|Harkins Theatres": {
    "locationSet": {"include": ["us"]},
    "matchNames": [
      "harkins theater",
      "harkins theaters",
      "harkins theatre"
    ],
    "tags": {
      "amenity": "cinema",
      "brand": "Harkins Theatres",
      "brand:wikidata": "Q5658199",
      "brand:wikipedia": "en:Harkins Theatres",
      "name": "Harkins Theatres",
      "short_name": "Harkins"
    }
  },
  "amenity/cinema|Haut et Court": {
    "locationSet": {"include": ["fr"]},
    "tags": {
      "amenity": "cinema",
      "brand": "Haut et Court",
      "brand:wikidata": "Q3128481",
      "brand:wikipedia": "fr:Haut et Court",
      "name": "Haut et Court"
    }
  },
  "amenity/cinema|Hoyts": {
    "locationSet": {"include": ["au", "nz"]},
    "tags": {
      "amenity": "cinema",
      "brand": "Hoyts",
      "brand:wikidata": "Q5922976",
      "brand:wikipedia": "en:Hoyts",
      "name": "Hoyts"
    }
  },
  "amenity/cinema|Kinepolis": {
    "locationSet": {
      "include": [
        "be",
        "ch",
        "es",
        "fr",
        "lu",
        "nl"
      ]
    },
    "tags": {
      "amenity": "cinema",
      "brand": "Kinepolis",
      "brand:wikidata": "Q1741993",
      "brand:wikipedia": "en:Kinepolis",
      "name": "Kinepolis"
    }
  },
  "amenity/cinema|Landmark Theatres": {
    "locationSet": {"include": ["us"]},
    "matchNames": [
      "landmark theater",
      "landmark theaters",
      "landmark theatre"
    ],
    "tags": {
      "amenity": "cinema",
      "brand": "Landmark Theatres",
      "brand:wikidata": "Q6484805",
      "brand:wikipedia": "en:Landmark Theatres",
      "name": "Landmark Theatres",
      "short_name": "Landmark"
    }
  },
  "amenity/cinema|Les Écrans de Paris": {
    "locationSet": {"include": ["fr"]},
    "tags": {
      "amenity": "cinema",
      "brand": "Les Écrans de Paris",
      "brand:wikidata": "Q3236510",
      "brand:wikipedia": "fr:Les Écrans de Paris",
      "name": "Les Écrans de Paris"
    }
  },
  "amenity/cinema|Lotus Five Star": {
    "locationSet": {"include": ["my"]},
    "tags": {
      "amenity": "cinema",
      "brand": "Lotus Five Star",
      "brand:wikidata": "Q17053165",
      "brand:wikipedia": "en:Lotus Five Star",
      "name": "Lotus Five Star",
      "short_name": "LFS"
    }
  },
  "amenity/cinema|MBO Cinemas": {
    "locationSet": {"include": ["my"]},
    "tags": {
      "amenity": "cinema",
      "brand": "MBO Cinemas",
      "brand:wikidata": "Q17053599",
      "brand:wikipedia": "en:MBO Cinemas",
      "name": "MBO Cinemas",
      "short_name": "MBO"
    }
  },
  "amenity/cinema|MK2": {
    "locationSet": {"include": ["fr"]},
    "tags": {
      "amenity": "cinema",
      "brand": "MK2",
      "brand:wikidata": "Q19814222",
      "brand:wikipedia": "fr:MK2",
      "name": "MK2"
    }
  },
  "amenity/cinema|MOVIX": {
    "locationSet": {"include": ["jp"]},
    "tags": {
      "amenity": "cinema",
      "brand": "MOVIX",
      "brand:wikidata": "Q11532184",
      "brand:wikipedia": "ja:松竹マルチプレックスシアターズ",
      "name": "MOVIX",
      "official_name": "松竹マルチプレックスシアターズ",
      "official_name:en": "Shochiku Multiplex Theatres"
    }
  },
  "amenity/cinema|Majestic": {
    "locationSet": {"include": ["fr"]},
    "tags": {
      "amenity": "cinema",
      "brand": "Majestic",
      "brand:wikidata": "Q19945144",
      "brand:wikipedia": "fr:Groupe Majestic Cinemas",
      "name": "Majestic"
    }
  },
  "amenity/cinema|Marcus Cinema": {
    "locationSet": {"include": ["us"]},
    "matchNames": [
      "marcus cinemas",
      "marcus theater",
      "marcus theaters",
      "marcus theatre",
      "marcus theatres"
    ],
    "tags": {
      "amenity": "cinema",
      "brand": "Marcus Cinema",
      "brand:wikidata": "Q64083352",
      "name": "Marcus Cinema",
      "short_name": "Marcus"
    }
  },
  "amenity/cinema|Movie Tavern": {
    "locationSet": {"include": ["us"]},
    "tags": {
      "amenity": "cinema",
      "brand": "Movie Tavern",
      "brand:wikidata": "Q64083534",
      "name": "Movie Tavern"
    }
  },
  "amenity/cinema|MultiCine": {
    "locationSet": {"include": ["bo"]},
    "tags": {
      "amenity": "cinema",
      "brand": "MultiCine",
      "brand:wikidata": "Q81963200",
      "name": "MultiCine"
    }
  },
  "amenity/cinema|Multikino": {
    "locationSet": {
      "include": ["lt", "lv", "pl"]
    },
    "tags": {
      "amenity": "cinema",
      "brand": "Multikino",
      "brand:wikidata": "Q1144802",
      "brand:wikipedia": "pl:Multikino",
      "name": "Multikino"
    }
  },
  "amenity/cinema|Odeon": {
    "locationSet": {
      "include": ["gb", "gr", "ie", "it"]
    },
    "matchNames": ["odeon cinema"],
    "tags": {
      "amenity": "cinema",
      "brand": "Odeon",
      "brand:wikidata": "Q6127470",
      "brand:wikipedia": "en:Odeon Cinemas",
      "name": "Odeon"
    }
  },
  "amenity/cinema|Pathé": {
    "locationSet": {"include": ["nl"]},
    "tags": {
      "amenity": "cinema",
      "brand": "Pathé",
      "brand:wikidata": "Q61959392",
      "brand:wikipedia": "nl:Pathé Nederland",
      "name": "Pathé"
    }
  },
  "amenity/cinema|Pathé Gaumont": {
    "locationSet": {
      "include": ["be", "ch", "fr"]
    },
    "tags": {
      "amenity": "cinema",
      "brand": "Pathé Gaumont",
      "brand:wikidata": "Q3060526",
      "brand:wikipedia": "fr:Les cinémas Gaumont Pathé",
      "name": "Pathé Gaumont"
    }
  },
  "amenity/cinema|Regal Cinemas": {
    "locationSet": {"include": ["us"]},
    "matchNames": ["regal cinema"],
    "tags": {
      "amenity": "cinema",
      "brand": "Regal Cinemas",
      "brand:wikidata": "Q835638",
      "brand:wikipedia": "en:Regal Cinemas",
      "name": "Regal Cinemas",
      "short_name": "Regal"
    }
  },
  "amenity/cinema|Showcase Cinemas": {
    "locationSet": {
      "include": ["ar", "gb", "us"]
    },
    "matchNames": ["showcase cinema"],
    "tags": {
      "amenity": "cinema",
      "brand": "Showcase Cinemas",
      "brand:wikidata": "Q7503170",
      "brand:wikipedia": "en:Showcase Cinemas",
      "name": "Showcase Cinemas",
      "short_name": "Showcase"
    }
  },
  "amenity/cinema|TGV Cinemas": {
    "locationSet": {"include": ["my"]},
    "tags": {
      "amenity": "cinema",
      "brand": "TGV Cinemas",
      "brand:wikidata": "Q7670188",
      "brand:wikipedia": "en:TGV Cinemas",
      "name": "TGV Cinemas",
      "short_name": "TGV"
    }
  },
  "amenity/cinema|TOHOシネマズ": {
    "locationSet": {"include": ["jp"]},
    "tags": {
      "amenity": "cinema",
      "brand": "TOHOシネマズ",
      "brand:en": "TOHO CINEMAS",
      "brand:ja": "TOHOシネマズ",
      "brand:wikidata": "Q11235261",
      "brand:wikipedia": "ja:TOHOシネマズ",
      "name": "TOHOシネマズ",
      "name:en": "Toho Cinemas",
      "name:ja": "TOHOシネマズ",
      "short_name": "TOHO"
    }
  },
  "amenity/cinema|The Space Cinema": {
    "locationSet": {"include": ["it"]},
    "matchNames": ["the space"],
    "tags": {
      "amenity": "cinema",
      "brand": "The Space Cinema",
      "brand:wikidata": "Q3989406",
      "brand:wikipedia": "it:The Space Cinema",
      "name": "The Space Cinema"
    }
  },
  "amenity/cinema|UGC": {
    "locationSet": {"include": ["fr"]},
    "tags": {
      "amenity": "cinema",
      "brand": "UGC",
      "brand:wikidata": "Q1643241",
      "brand:wikipedia": "fr:Union générale cinématographique",
      "name": "UGC"
    }
  },
  "amenity/cinema|Utopia": {
    "locationSet": {"include": ["fr"]},
    "tags": {
      "amenity": "cinema",
      "brand": "Utopia",
      "brand:wikidata": "Q3552766",
      "brand:wikipedia": "fr:Utopia (cinéma)",
      "name": "Utopia"
    }
  },
  "amenity/cinema|Vue~(IrelandAndUK)": {
    "locationSet": {"include": ["gb", "ie"]},
    "matchNames": ["vue cinema", "vue cinemas"],
    "nomatch": [
      "amenity/cinema|Vue~(Netherlands)"
    ],
    "tags": {
      "amenity": "cinema",
      "brand": "Vue",
      "brand:wikidata": "Q2535134",
      "brand:wikipedia": "en:Vue Cinemas",
      "name": "Vue"
    }
  },
  "amenity/cinema|Vue~(Netherlands)": {
    "locationSet": {"include": ["nl"]},
    "matchNames": ["vue cinema"],
    "nomatch": [
      "amenity/cinema|Vue~(IrelandAndUK)"
    ],
    "tags": {
      "amenity": "cinema",
      "brand": "Vue",
      "brand:wikidata": "Q2421690",
      "brand:wikipedia": "nl:Vue (bioscoopketen)",
      "name": "Vue"
    }
  },
  "amenity/cinema|Мир": {
    "locationSet": {"include": ["001"]},
    "tags": {
      "amenity": "cinema",
      "brand": "Мир",
      "name": "Мир"
    }
  },
  "amenity/cinema|イオンシネマ": {
    "locationSet": {"include": ["jp"]},
    "tags": {
      "amenity": "cinema",
      "brand": "イオンシネマ",
      "brand:en": "AEON Cinema",
      "brand:ja": "イオンシネマ",
      "brand:wikidata": "Q17192792",
      "brand:wikipedia": "ja:イオンエンターテイメント",
      "name": "イオンシネマ",
      "name:en": "AEON Cinema",
      "name:ja": "イオンシネマ"
    }
  },
  "amenity/cinema|ユナイテッド・シネマ": {
    "locationSet": {"include": ["jp"]},
    "tags": {
      "amenity": "cinema",
      "brand": "ユナイテッド・シネマ",
      "brand:en": "United Cinemas",
      "brand:ja": "ユナイテッド・シネマ",
      "brand:wikidata": "Q11345629",
      "brand:wikipedia": "ja:ユナイテッド・シネマ",
      "name": "ユナイテッド・シネマ",
      "name:en": "United Cinemas",
      "name:ja": "ユナイテッド・シネマ"
    }
  }
}
